GLOBALSTAR M057 [-]     
1 25943U 99058A   23298.31519541 -.00000055  00000+0  34436-3 0  9990
2 25943  51.9976 253.3905 0002051 212.3445 147.7279 12.24776734 93303
GLOBALSTAR M059 [-]     
1 25944U 99058B   23298.61512044 -.00000094  00000+0 -91038-4 0  9991
2 25944  52.0044  31.8739 0000600 151.0243 346.4533 11.99953967501940
GLOBALSTAR M031 [-]     
1 25946U 99058D   23298.89999503 -.00000141  00000+0 -51713-3 0  9990
2 25946  51.9980 336.7237 0001710  47.0106 125.0337 12.15997261 91518
GLOBALSTAR M034 [-]     
1 25962U 99062B   23298.49182043 -.00000048  00000+0  52046-3 0  9997
2 25962  51.9841 132.8064 0013921 351.5693  20.6699 11.79416592 67512
GLOBALSTAR M029 [-]     
1 25963U 99062C   23298.42301758 -.00000069  00000+0  20956-3 0  9995
2 25963  51.9798 280.9454 0002982  22.0515 145.0420 11.99869355 97002
GLOBALSTAR M061 [-]     
1 25964U 99062D   23298.44673308 -.00000055  00000+0  40877-3 0  9990
2 25964  51.9799 309.0019 0005816 278.2286 258.4199 11.76752109 50456
